start=new Date('2022-07-20T00:00:00.000Z').valueOf();
sats=[{"RCS_SIZE":"LARGE","MEAN_MOTION_DOT":"0.00004065","MEAN_ELEMENT_THEORY":"SGP4","EPOCH":"2022-07-19T21:09:46.542816","BSTAR":"0.00027326000000","RA_OF_ASC_NODE":"344.3827","PERIAPSIS":"538.639","COUNTRY_CODE":"US","NORAD_CAT_ID":"49769","SEMIMAJOR_AXIS":"6917.842","PERIOD":"95.437","REF_FRAME":"TEME","DECAY_DATE":null,"OBJECT_TYPE":"PAYLOAD","EPHEMERIS_TYPE":"0","TIME_SYSTEM":"UTC","MEAN_MOTION_DDOT":"0.0000000000000","LAUNCH_DATE":"2021-12-02","FILE":"3517796","ECCENTRICITY":"0.00015440","REV_AT_EPOCH":"3507","APOAPSIS":"540.775","INCLINATION":"53.2173","TLE_LINE1":"1 49769U 21115AX  22200.88178869  .00004065  00000-0  27326-3 0  9994","SITE":"AFETR","OBJECT_ID":"2021-115AX","ARG_OF_PERICENTER":"72.5121","TLE_LINE2":"2 49769  53.2173 344.3827 0001544  72.5121 287.6039 15.08852665 35077","MEAN_ANOMALY":"287.6039","CENTER_NAME":"EARTH","CLASSIFICATION_TYPE":"U","OBJECT_NAME":"STARLINK-3208","GP_ID":"208473342","ELEMENT_SET_NO":"999","MEAN_MOTION":"15.08852665"},{"RA_OF_ASC_NODE":"344.6482","BSTAR":"0.00065890000000","MEAN_ELEMENT_THEORY":"SGP4","EPOCH":"2022-07-19T19:44:59.688384","PERIAPSIS":"538.425","MEAN_MOTION_DOT":"0.00010217","RCS_SIZE":"LARGE","OBJECT_TYPE":"PAYLOAD","REF_FRAME":"TEME","DECAY_DATE":null,"EPHEMERIS_TYPE":"0","TIME_SYSTEM":"UTC","SEMIMAJOR_AXIS":"6917.844","PERIOD":"95.437","COUNTRY_CODE":"US","NORAD_CAT_ID":"49770","ECCENTRICITY":"0.00018550","MEAN_MOTION_DDOT":"0.0000000000000","FILE":"3517796","LAUNCH_DATE":"2021-12-02","TLE_LINE2":"2 49770  53.2167 344.6482 0001855  51.3527 308.7631 15.08851995 36183","CENTER_NAME":"EARTH","MEAN_ANOMALY":"308.7631","CLASSIFICATION_TYPE":"U","MEAN_MOTION":"15.08851995","GP_ID":"208473593","ELEMENT_SET_NO":"999","OBJECT_NAME":"STARLINK-3191","OBJECT_ID":"2021-115AY","TLE_LINE1":"1 49770U 21115AY  22200.82291306  .00010217  00000-0  65890-3 0  9996","SITE":"AFETR","ARG_OF_PERICENTER":"51.3527","REV_AT_EPOCH":"3618","APOAPSIS":"540.992","INCLINATION":"53.2167"},{"MEAN_MOTION_DDOT":"0.0000000000000","LAUNCH_DATE":"2021-12-02","FILE":"3517796","ECCENTRICITY":"0.00014960","INCLINATION":"53.2180","APOAPSIS":"540.751","REV_AT_EPOCH":"3506","ARG_OF_PERICENTER":"70.8899","TLE_LINE1":"1 49771U 21115AZ  22200.82658723  .00001626  00000-0  12018-3 0  9995","OBJECT_ID":"2021-115AZ","SITE":"AFETR","CENTER_NAME":"EARTH","CLASSIFICATION_TYPE":"U","MEAN_ANOMALY":"289.2255","TLE_LINE2":"2 49771  53.2180 344.6218 0001496  70.8899 289.2255 15.08849425 35061","OBJECT_NAME":"STARLINK-3201","GP_ID":"208472341","ELEMENT_SET_NO":"999","MEAN_MOTION":"15.08849425","RCS_SIZE":"LARGE","MEAN_MOTION_DOT":"0.00001626","EPOCH":"2022-07-19T19:50:17.136672","MEAN_ELEMENT_THEORY":"SGP4","RA_OF_ASC_NODE":"344.6218","BSTAR":"0.00012018000000","PERIAPSIS":"538.682","NORAD_CAT_ID":"49771","COUNTRY_CODE":"US","PERIOD":"95.437","SEMIMAJOR_AXIS":"6917.852","DECAY_DATE":null,"REF_FRAME":"TEME","OBJECT_TYPE":"PAYLOAD","TIME_SYSTEM":"UTC","EPHEMERIS_TYPE":"0"},{"MEAN_MOTION_DDOT":"0.0000000000000","FILE":"3517796","LAUNCH_DATE":"2021-12-18","ECCENTRICITY":"0.00026050","ARG_OF_PERICENTER":"68.4949","OBJECT_ID":"2021-125A","TLE_LINE1":"1 50156U 21125A   22200.90943238  .00008024  00000-0  52144-3 0  9995","SITE":"AFWTR","APOAPSIS":"541.495","INCLINATION":"53.2171","REV_AT_EPOCH":"3603","CLASSIFICATION_TYPE":"U","CENTER_NAME":"EARTH","MEAN_ANOMALY":"291.6321","TLE_LINE2":"2 50156  53.2171  94.2469 0002605  68.4949 291.6321 15.08857194 36039","MEAN_MOTION":"15.08857194","GP_ID":"208473115","ELEMENT_SET_NO":"999","OBJECT_NAME":"STARLINK-3317","RCS_SIZE":"LARGE","MEAN_MOTION_DOT":"0.00008024","BSTAR":"0.00052144000000","RA_OF_ASC_NODE":"94.2469","EPOCH":"2022-07-19T21:49:34.957632","MEAN_ELEMENT_THEORY":"SGP4","PERIAPSIS":"537.891","PERIOD":"95.436","SEMIMAJOR_AXIS":"6917.828","NORAD_CAT_ID":"50156","COUNTRY_CODE":"US","OBJECT_TYPE":"PAYLOAD","DECAY_DATE":null,"REF_FRAME":"TEME","TIME_SYSTEM":"UTC","EPHEMERIS_TYPE":"0"},{"ECCENTRICITY":"0.00025630","MEAN_MOTION_DDOT":"0.0000000000000","FILE":"3517796","LAUNCH_DATE":"2021-12-18","TLE_LINE2":"2 50157  53.2144 104.1435 0002563  59.9108 300.2138 15.08848223 35900","MEAN_ANOMALY":"300.2138","CENTER_NAME":"EARTH","CLASSIFICATION_TYPE":"U","GP_ID":"208471863","ELEMENT_SET_NO":"999","MEAN_MOTION":"15.08848223","OBJECT_NAME":"STARLINK-3313","SITE":"AFWTR","TLE_LINE1":"1 50157U 21125B   22200.93331271  .00004163  00000-0  27948-3 0  9991","OBJECT_ID":"2021-125B","ARG_OF_PERICENTER":"59.9108","REV_AT_EPOCH":"3590","APOAPSIS":"541.493","INCLINATION":"53.2144","BSTAR":"0.00027948000000","RA_OF_ASC_NODE":"104.1435","MEAN_ELEMENT_THEORY":"SGP4","EPOCH":"2022-07-19T22:23:58.218144","PERIAPSIS":"537.947","RCS_SIZE":"LARGE","MEAN_MOTION_DOT":"0.00004163","OBJECT_TYPE":"PAYLOAD","REF_FRAME":"TEME","DECAY_DATE":null,"EPHEMERIS_TYPE":"0","TIME_SYSTEM":"UTC","SEMIMAJOR_AXIS":"6917.855","PERIOD":"95.437","COUNTRY_CODE":"US","NORAD_CAT_ID":"50157"},{"ECCENTRICITY":"0.00025380","MEAN_MOTION_DDOT":"0.0000000000000","FILE":"3517796","LAUNCH_DATE":"2021-12-18","TLE_LINE2":"2 50158  53.2158 104.2024 0002538  58.9299 301.1942 15.08853306 35926","MEAN_ANOMALY":"301.1942","CLASSIFICATION_TYPE":"U","CENTER_NAME":"EARTH","ELEMENT_SET_NO":"999","GP_ID":"208472113","MEAN_MOTION":"15.08853306","OBJECT_NAME":"STARLINK-3309","OBJECT_ID":"2021-125C","TLE_LINE1":"1 50158U 21125C   22200.92226949  .00006141  00000-0  40343-3 0  9998","SITE":"AFWTR","ARG_OF_PERICENTER":"58.9299","REV_AT_EPOCH":"3592","INCLINATION":"53.2158","APOAPSIS":"541.460","RA_OF_ASC_NODE":"104.2024","BSTAR":"0.00040343000000","MEAN_ELEMENT_THEORY":"SGP4","EPOCH":"2022-07-19T22:08:04.083936","PERIAPSIS":"537.949","MEAN_MOTION_DOT":"0.00006141","RCS_SIZE":"LARGE","OBJECT_TYPE":"PAYLOAD","REF_FRAME":"TEME","DECAY_DATE":null,"EPHEMERIS_TYPE":"0","TIME_SYSTEM":"UTC","SEMIMAJOR_AXIS":"6917.840","PERIOD":"95.437","COUNTRY_CODE":"US","NORAD_CAT_ID":"50158"},{"OBJECT_TYPE":"PAYLOAD","DECAY_DATE":null,"REF_FRAME":"TEME","TIME_SYSTEM":"UTC","EPHEMERIS_TYPE":"0","PERIOD":"95.437","SEMIMAJOR_AXIS":"6917.862","NORAD_CAT_ID":"50159","COUNTRY_CODE":"US","BSTAR":"0.00013945000000","RA_OF_ASC_NODE":"104.2111","EPOCH":"2022-07-19T22:02:46.376448","MEAN_ELEMENT_THEORY":"SGP4","PERIAPSIS":"537.950","MEAN_MOTION_DOT":"0.00001932","RCS_SIZE":"LARGE","CLASSIFICATION_TYPE":"U","CENTER_NAME":"EARTH","MEAN_ANOMALY":"307.4378","TLE_LINE2":"2 50159  53.2162 104.2111 0002569  52.6848 307.4378 15.08845991 35859","GP_ID":"208473365","ELEMENT_SET_NO":"999","MEAN_MOTION":"15.08845991","OBJECT_NAME":"STARLINK-3297","ARG_OF_PERICENTER":"52.6848","OBJECT_ID":"2021-125D","TLE_LINE1":"1 50159U 21125D   22200.91859232  .00001932  00000-0  13945-3 0  9996","SITE":"AFWTR","INCLINATION":"53.2162","APOAPSIS":"541.504","REV_AT_EPOCH":"3585","ECCENTRICITY":"0.00025690","MEAN_MOTION_DDOT":"0.0000000000000","FILE":"3517796","LAUNCH_DATE":"2021-12-18"},{"TLE_LINE1":"1 50160U 21125E   22200.92595223  .00007935  00000-0  51592-3 0  9995","OBJECT_ID":"2021-125E","SITE":"AFWTR","ARG_OF_PERICENTER":"56.2091","REV_AT_EPOCH":"3586","INCLINATION":"53.2162","APOAPSIS":"541.327","TLE_LINE2":"2 50160  53.2162 104.1890 0002341  56.2091 303.9124 15.08852423 35861","CLASSIFICATION_TYPE":"U","CENTER_NAME":"EARTH","MEAN_ANOMALY":"303.9124","MEAN_MOTION":"15.08852423","GP_ID":"208473616","ELEMENT_SET_NO":"999","OBJECT_NAME":"STARLINK-3288","MEAN_MOTION_DDOT":"0.0000000000000","FILE":"3517796","LAUNCH_DATE":"2021-12-18","ECCENTRICITY":"0.00023410","SEMIMAJOR_AXIS":"6917.842","PERIOD":"95.437","COUNTRY_CODE":"US","NORAD_CAT_ID":"50160","OBJECT_TYPE":"PAYLOAD","REF_FRAME":"TEME","DECAY_DATE":null,"EPHEMERIS_TYPE":"0","TIME_SYSTEM":"UTC","MEAN_MOTION_DOT":"0.00007935","RCS_SIZE":"LARGE","BSTAR":"0.00051592000000","RA_OF_ASC_NODE":"104.1890","MEAN_ELEMENT_THEORY":"SGP4","EPOCH":"2022-07-19T22:13:22.272672","PERIAPSIS":"538.088"},{"TLE_LINE2":"2 50161  53.2154 104.1605 0002170  59.7057 300.4149 15.08848421 35858","CENTER_NAME":"EARTH","MEAN_ANOMALY":"300.4149","CLASSIFICATION_TYPE":"U","MEAN_MOTION":"15.08848421","GP_ID":"208472364","ELEMENT_SET_NO":"999","OBJECT_NAME":"STARLINK-3304","TLE_LINE1":"1 50161U 21125F   22200.92962404  .00002910  00000-0  20081-3 0  9992","OBJECT_ID":"2021-125F","SITE":"AFWTR","ARG_OF_PERICENTER":"59.7057","REV_AT_EPOCH":"3585","INCLINATION":"53.2154","APOAPSIS":"541.221","ECCENTRICITY":"0.00021700","MEAN_MOTION_DDOT":"0.0000000000000","FILE":"3517796","LAUNCH_DATE":"2021-12-18","OBJECT_TYPE":"PAYLOAD","REF_FRAME":"TEME","DECAY_DATE":null,"EPHEMERIS_TYPE":"0","TIME_SYSTEM":"UTC","SEMIMAJOR_AXIS":"6917.855","PERIOD":"95.437","COUNTRY_CODE":"US","NORAD_CAT_ID":"50161","BSTAR":"0.00020081000000","RA_OF_ASC_NODE":"104.1605","MEAN_ELEMENT_THEORY":"SGP4","EPOCH":"2022-07-19T22:18:39.517056","PERIAPSIS":"538.218","RCS_SIZE":"LARGE","MEAN_MOTION_DOT":"0.00002910"},{"ECCENTRICITY":"0.00031040","FILE":"3517796","LAUNCH_DATE":"2021-12-18","MEAN_MOTION_DDOT":"0.0000000000000","GP_ID":"208472614","ELEMENT_SET_NO":"999","MEAN_MOTION":"15.78305772","OBJECT_NAME":"STARLINK-3303","TLE_LINE2":"2 50162  53.2048  20.3836 0003104   5.9883 309.9710 15.78305772  1309","CENTER_NAME":"EARTH","MEAN_ANOMALY":"309.9710","CLASSIFICATION_TYPE":"U","SITE":"AFWTR","TLE_LINE1":"1 50162U 21125G   22200.91667824  .00118628  00000-0  66996-3 0  9999","OBJECT_ID":"2021-125G","ARG_OF_PERICENTER":"5.9883","REV_AT_EPOCH":"130","INCLINATION":"53.2048","APOAPSIS":"337.326","PERIAPSIS":"333.159","BSTAR":"0.00066996000000","RA_OF_ASC_NODE":"20.3836","MEAN_ELEMENT_THEORY":"SGP4","EPOCH":"2022-07-19T22:00:00.999936","MEAN_MOTION_DOT":"0.00118628","RCS_SIZE":"LARGE","EPHEMERIS_TYPE":"0","TIME_SYSTEM":"UTC","OBJECT_TYPE":"PAYLOAD","REF_FRAME":"TEME","DECAY_DATE":null,"SEMIMAJOR_AXIS":"6713.378","PERIOD":"91.237","COUNTRY_CODE":"US","NORAD_CAT_ID":"50162"}];
